{
  "type": "FeatureCollection",
  "features": [
    {
      "type": "Feature",
      "properties": {
        "norad_id": 41866,
        "name": "GOES 16",
        "group": "weather",
        "lat": -0.05827402661291116,
        "lon": -24.638914096381395,
        "alt_km": 35781.77817066238,
        "timestamp": "2025-12-16T23:36:35.827950+00:00",
        "meta_object_name": "GOES 16",
        "meta_object_id": "2016-071A",
        "meta_epoch": "2025-12-16T06:31:16.110336",
        "meta_mean_motion": 1.00271824,
        "meta_eccentricity": 0.00030705,
        "meta_inclination": 0.0719,
        "meta_ra_of_asc_node": 102.8838,
        "meta_arg_of_pericenter": 161.8169,
        "meta_mean_anomaly": 173.6047,
        "meta_ephemeris_type": 0,
        "meta_classification_type": "U",
        "meta_norad_cat_id": 41866,
        "meta_element_set_no": 999,
        "meta_rev_at_epoch": 3326,
        "meta_bstar": 0,
        "meta_mean_motion_dot": -6.8e-07,
        "meta_mean_motion_ddot": 0,
        "tle_line1": "1 41866U 16071A   25350.27171424 -.00000068  00000+0  00000+0 0  9996",
        "tle_line2": "2 41866   0.0719 102.8838 0003070 161.8169 173.6047  1.00271824 33263"
      },
      "geometry": {
        "type": "Point",
        "coordinates": [
          -24.638914096381395,
          -0.05827402661291116
        ]
      }
    },
    {
      "type": "Feature",
      "properties": {
        "norad_id": 41882,
        "name": "FENGYUN 4A",
        "group": "weather",
        "lat": 1.57053898004913,
        "lon": -156.21175962797403,
        "alt_km": 35769.17244409654,
        "timestamp": "2025-12-16T23:36:35.827963+00:00",
        "meta_object_name": "FENGYUN 4A",
        "meta_object_id": "2016-077A",
        "meta_epoch": "2025-12-16T07:23:13.239168",
        "meta_mean_motion": 1.00268195,
        "meta_eccentricity": 0.00045882,
        "meta_inclination": 1.8583,
        "meta_ra_of_asc_node": 82.3575,
        "meta_arg_of_pericenter": 144.3601,
        "meta_mean_anomaly": 93.0852,
        "meta_ephemeris_type": 0,
        "meta_classification_type": "U",
        "meta_norad_cat_id": 41882,
        "meta_element_set_no": 999,
        "meta_rev_at_epoch": 3309,
        "meta_bstar": 0,
        "meta_mean_motion_dot": -3.35e-06,
        "meta_mean_motion_ddot": 0,
        "tle_line1": "1 41882U 16077A   25350.30779212 -.00000335  00000+0  00000+0 0  9990",
        "tle_line2": "2 41882   1.8583  82.3575 0004588 144.3601  93.0852  1.00268195 33098"
      },
      "geometry": {
        "type": "Point",
        "coordinates": [
          -156.21175962797403,
          1.57053898004913
        ]
      }
    },
    {
      "type": "Feature",
      "properties": {
        "norad_id": 41884,
        "name": "CYGFM05",
        "group": "weather",
        "lat": -32.78846676021197,
        "lon": -47.81144623935599,
        "alt_km": 422.38978967067123,
        "timestamp": "2025-12-16T23:36:35.827975+00:00",
        "meta_object_name": "CYGFM05",
        "meta_object_id": "2016-078A",
        "meta_epoch": "2025-12-16T06:53:15.592128",
        "meta_mean_motion": 15.47769526,
        "meta_eccentricity": 0.00105116,
        "meta_inclination": 34.9606,
        "meta_ra_of_asc_node": 23.9576,
        "meta_arg_of_pericenter": 215.4173,
        "meta_mean_anomaly": 144.5851,
        "meta_ephemeris_type": 0,
        "meta_classification_type": "U",
        "meta_norad_cat_id": 41884,
        "meta_element_set_no": 999,
        "meta_rev_at_epoch": 50031,
        "meta_bstar": 0.00028939562,
        "meta_mean_motion_dot": 0.00015482,
        "meta_mean_motion_ddot": 0,
        "tle_line1": "1 41884U 16078A   25350.28698602  .00015482  00000+0  28940-3 0  9998",
        "tle_line2": "2 41884  34.9606  23.9576 0010511 215.4173 144.5851 15.47769526500317"
      },
      "geometry": {
        "type": "Point",
        "coordinates": [
          -47.81144623935599,
          -32.78846676021197
        ]
      }
    },
    {
      "type": "Feature",
      "properties": {
        "norad_id": 41885,
        "name": "CYGFM04",
        "group": "weather",
        "lat": -16.736541413973978,
        "lon": -160.42267167214303,
        "alt_km": 410.69342560026325,
        "timestamp": "2025-12-16T23:36:35.827986+00:00",
        "meta_object_name": "CYGFM04",
        "meta_object_id": "2016-078B",
        "meta_epoch": "2025-12-16T07:15:18.126432",
        "meta_mean_motion": 15.50510033,
        "meta_eccentricity": 0.0009716,
        "meta_inclination": 34.9357,
        "meta_ra_of_asc_node": 358.5314,
        "meta_arg_of_pericenter": 241.0706,
        "meta_mean_anomaly": 118.9042,
        "meta_ephemeris_type": 0,
        "meta_classification_type": "U",
        "meta_norad_cat_id": 41885,
        "meta_element_set_no": 999,
        "meta_rev_at_epoch": 50049,
        "meta_bstar": 0.00030787238,
        "meta_mean_motion_dot": 0.00018152,
        "meta_mean_motion_ddot": 0,
        "tle_line1": "1 41885U 16078B   25350.30229313  .00018152  00000+0  30787-3 0  9990",
        "tle_line2": "2 41885  34.9357 358.5314 0009716 241.0706 118.9042 15.50510033500497"
      },
      "geometry": {
        "type": "Point",
        "coordinates": [
          -160.42267167214303,
          -16.736541413973978
        ]
      }
    },
    {
      "type": "Feature",
      "properties": {
        "norad_id": 41886,
        "name": "CYGFM02",
        "group": "weather",
        "lat": -31.11807430175691,
        "lon": -127.84100869860133,
        "alt_km": 405.2750601203488,
        "timestamp": "2025-12-16T23:36:35.828001+00:00",
        "meta_object_name": "CYGFM02",
        "meta_object_id": "2016-078C",
        "meta_epoch": "2025-12-16T07:07:21.489600",
        "meta_mean_motion": 15.51900134,
        "meta_eccentricity": 0.0011388,
        "meta_inclination": 34.9445,
        "meta_ra_of_asc_node": 356.8474,
        "meta_arg_of_pericenter": 241.1021,
        "meta_mean_anomaly": 118.8559,
        "meta_ephemeris_type": 0,
        "meta_classification_type": "U",
        "meta_norad_cat_id": 41886,
        "meta_element_set_no": 999,
        "meta_rev_at_epoch": 50062,
        "meta_bstar": 0.00031639696,
        "meta_mean_motion_dot": 0.00019629,
        "meta_mean_motion_ddot": 0,
        "tle_line1": "1 41886U 16078C   25350.29677650  .00019629  00000+0  31640-3 0  9999",
        "tle_line2": "2 41886  34.9445 356.8474 0011388 241.1021 118.8559 15.51900134500626"
      },
      "geometry": {
        "type": "Point",
        "coordinates": [
          -127.84100869860133,
          -31.11807430175691
        ]
      }
    },
    {
      "type": "Feature",
      "properties": {
        "norad_id": 41887,
        "name": "CYGFM01",
        "group": "weather",
        "lat": -10.135411380088714,
        "lon": 6.890838462946202,
        "alt_km": 425.80180227077017,
        "timestamp": "2025-12-16T23:36:35.828022+00:00",
        "meta_object_name": "CYGFM01",
        "meta_object_id": "2016-078D",
        "meta_epoch": "2025-12-16T06:39:55.990368",
        "meta_mean_motion": 15.48353139,
        "meta_eccentricity": 0.00101119,
        "meta_inclination": 34.9438,
        "meta_ra_of_asc_node": 26.3425,
        "meta_arg_of_pericenter": 207.55,
        "meta_mean_anomaly": 152.4686,
        "meta_ephemeris_type": 0,
        "meta_classification_type": "U",
        "meta_norad_cat_id": 41887,
        "meta_element_set_no": 999,
        "meta_rev_at_epoch": 50025,
        "meta_bstar": 0.00029112986,
        "meta_mean_motion_dot": 0.00015896,
        "meta_mean_motion_ddot": 0,
        "tle_line1": "1 41887U 16078D   25350.27773137  .00015896  00000+0  29113-3 0  9999",
        "tle_line2": "2 41887  34.9438  26.3425 0010111 207.5500 152.4686 15.48353139500252"
      },
      "geometry": {
        "type": "Point",
        "coordinates": [
          6.890838462946202,
          -10.135411380088714
        ]
      }
    },
    {
      "type": "Feature",
      "properties": {
        "norad_id": 41888,
        "name": "CYGFM08",
        "group": "weather",
        "lat": 25.60636347723883,
        "lon": 48.00493048433203,
        "alt_km": 420.95183106481,
        "timestamp": "2025-12-16T23:36:35.828035+00:00",
        "meta_object_name": "CYGFM08",
        "meta_object_id": "2016-078E",
        "meta_epoch": "2025-12-16T07:56:14.072352",
        "meta_mean_motion": 15.49568534,
        "meta_eccentricity": 0.00118639,
        "meta_inclination": 34.9468,
        "meta_ra_of_asc_node": 8.9463,
        "meta_arg_of_pericenter": 230.8164,
        "meta_mean_anomaly": 129.1505,
        "meta_ephemeris_type": 0,
        "meta_classification_type": "U",
        "meta_norad_cat_id": 41888,
        "meta_element_set_no": 999,
        "meta_rev_at_epoch": 50049,
        "meta_bstar": 0.00030314604,
        "meta_mean_motion_dot": 0.00017297,
        "meta_mean_motion_ddot": 0,
        "tle_line1": "1 41888U 16078E   25350.33071843  .00017297  00000+0  30315-3 0  9995",
        "tle_line2": "2 41888  34.9468   8.9463 0011863 230.8164 129.1505 15.49568534500499"
      },
      "geometry": {
        "type": "Point",
        "coordinates": [
          48.00493048433203,
          25.60636347723883
        ]
      }
    }
  ]
}